BEIDOU-2 IGSO-1 (C06)   
1 36828U 10036A   24329.49463914 -.00000042  00000+0  00000+0 0  9992
2 36828  54.2567 168.1119 0042637 205.7892 334.9218  1.00284759 52384
BEIDOU-2 G4 (C04)       
1 37210U 10057A   24329.55674337 -.00000099  00000+0  00000+0 0  9993
2 37210   2.2351  70.1109 0009550 180.1366 174.1794  1.00272980 51570
BEIDOU-2 IGSO-2 (C07)   
1 37256U 10068A   24328.79662951 -.00000212  00000+0  00000+0 0  9996
2 37256  48.5877 278.8699 0037979 218.3273 317.9965  1.00251979 51071
BEIDOU-2 IGSO-3 (C08)   
1 37384U 11013A   24328.93618652 -.00000201  00000+0  00000+0 0  9992
2 37384  61.5883  45.5767 0031675 181.1619 281.1885  1.00269007 49956
BEIDOU-2 IGSO-4 (C09)   
1 37763U 11038A   24328.86294007  .00000023  00000+0  00000+0 0  9997
2 37763  54.5623 170.7662 0129668 228.5517  71.0184  1.00274763 48928
BEIDOU-2 IGSO-5 (C10)   
1 37948U 11073A   24328.83733877 -.00000214  00000+0  00000+0 0  9994
2 37948  48.7228 278.5655 0100966 222.1174 317.7977  1.00256901 47414
BEIDOU-2 G5 (C05)       
1 38091U 12008A   24329.45263801  .00000069  00000+0  00000+0 0  9994
2 38091   2.1550  70.9139 0011321 223.0012 351.7086  1.00268491 46655
BEIDOU-2 M3 (C11)       
1 38250U 12018A   24327.33364896 -.00000074  00000+0  00000+0 0  9990
2 38250  56.2272 324.0696 0025496 266.8291  92.8907  1.86233658 85295
BEIDOU-2 M4 (C12)       
1 38251U 12018B   24329.41192698 -.00000073  00000+0  00000+0 0  9990
2 38251  56.1309 323.2597 0016380 269.3637  90.4610  1.86232137 85332
BEIDOU-2 M6 (C14)       
1 38775U 12050B   24328.58462731 -.00000020  00000+0  00000+0 0  9994
2 38775  56.0461  81.8421 0010672 341.5781  18.3700  1.86231009 83036
BEIDOU-2 G6 (C02)       
1 38953U 12059A   24329.59424539 -.00000163  00000+0  00000+0 0  9995
2 38953   2.9696  79.1847 0007131 290.1991 352.6073  1.00273959 44191
BEIDOU-3S IGSO-1S (C31) 
1 40549U 15019A   24329.38886769 -.00000186  00000+0  00000+0 0  9997
2 40549  50.2767 302.2907 0035189 198.6127 159.5859  1.00269286 35356
BEIDOU-3S M2S (C58)     
1 40748U 15037A   24329.07553873 -.00000075  00000+0  00000+0 0  9998
2 40748  55.3585 321.5912 0013116 260.1361  99.7260  1.86229219 63507
BEIDOU-3S M1S (C57)     
1 40749U 15037B   24328.81182492 -.00000074  00000+0  00000+0 0  9994
2 40749  55.3614 321.5867 0004258 320.8774  39.1021  1.86227670 63501
BEIDOU-3S IGSO-2S (C56) 
1 40938U 15053A   24328.84337961 -.00000164  00000+0  00000+0 0  9998
2 40938  50.1116 265.5366 0051853 189.3266   8.5923  1.00269813 33632
BEIDOU-2 IGSO-6 (C13)   
1 41434U 16021A   24328.98500128 -.00000179  00000+0  00000+0 0  9994
2 41434  59.4159  43.7444 0055114 225.2983 245.4760  1.00284183 31766
BEIDOU-2 G7 (C03)       
1 41586U 16037A   24329.59397328 -.00000340  00000+0  00000+0 0  9993
2 41586   1.7640  67.1262 0007011 339.0970 342.0940  1.00265763  1179
BEIDOU-3 M1 (C19)       
1 43001U 17069A   24329.42439180 -.00000024  00000+0  00000+0 0  9997
2 43001  56.1968  81.9312 0008185 298.0010  61.9022  1.86231382 47994
BEIDOU-3 M2 (C20)       
1 43002U 17069B   24329.36198013 -.00000024  00000+0  00000+0 0  9998
2 43002  56.1956  81.9695 0005684 328.4928  31.4591  1.86230982 47980
BEIDOU-3 M7 (C27)       
1 43107U 18003A   24326.96184143 -.00000076  00000+0  00000+0 0  9992
2 43107  54.8185 322.1849 0002303  62.5354 297.4970  1.86232485 46692
BEIDOU-3 M8 (C28)       
1 43108U 18003B   24329.05140411 -.00000077  00000+0  00000+0 0  9997
2 43108  54.8099 322.0975 0005199 266.1246  93.8267  1.86231006 46745
BEIDOU-3 M4 (C22)       
1 43207U 18018A   24328.95556500 -.00000021  00000+0  00000+0 0  9990
2 43207  56.1550  82.0304 0003749  14.5229 345.4742  1.86231305 46124
BEIDOU-3 M3 (C21)       
1 43208U 18018B   24329.02217486 -.00000022  00000+0  00000+0 0  9998
2 43208  56.1546  82.0324 0005702 312.3820  47.5561  1.86231421 46127
BEIDOU-3 M9 (C29)       
1 43245U 18029A   24328.16810362 -.00000075  00000+0  00000+0 0  9995
2 43245  54.6958 319.8349 0002239 267.0326  92.9496  1.86232805 45267
BEIDOU-3 M10 (C30)      
1 43246U 18029B   24329.17144654 -.00000076  00000+0  00000+0 0  9993
2 43246  54.6926 319.8283 0003813 344.9003  15.0965  1.86232918 45268
BEIDOU-2 IGSO-7 (C16)   
1 43539U 18057A   24329.49861903 -.00000047  00000+0  00000+0 0  9995
2 43539  55.1502 167.9899 0077997 232.1996 315.9270  1.00263160 23421
BEIDOU-3 M5 (C23)       
1 43581U 18062A   24328.86008373  .00000017  00000+0  00000+0 0  9998
2 43581  54.1137 201.6999 0002337 331.7952  28.2739  1.86228877 43013
BEIDOU-3 M6 (C24)       
1 43582U 18062B   24329.26203086  .00000022  00000+0  00000+0 0  9998
2 43582  54.1133 201.6756 0007075  36.6994 323.4317  1.86229972 43022
BEIDOU-3 M12 (C26)      
1 43602U 18067A   24329.19587296  .00000024  00000+0  00000+0 0  9998
2 43602  54.2052 200.3738 0008528  33.4038 326.7330  1.86227802 42503
BEIDOU-3 M11 (C25)      
1 43603U 18067B   24329.32935160  .00000026  00000+0  00000+0 0  9993
2 43603  54.2026 200.3341 0005149  28.4003 331.7111  1.86227336 42535
BEIDOU-3 M13 (C32)      
1 43622U 18072A   24329.29015404 -.00000024  00000+0  00000+0 0  9995
2 43622  56.1268  81.5460 0005010 291.0235  68.9094  1.86231123 42042
BEIDOU-3 M14 (C33)      
1 43623U 18072B   24328.08171545 -.00000018  00000+0  00000+0 0  9994
2 43623  56.1278  81.5795 0002509 333.0658  26.9083  1.86231087 42019
BEIDOU-3 M16 (C35)      
1 43647U 18078A   24329.31733269 -.00000076  00000+0  00000+0 0  9994
2 43647  54.5917 319.8810 0006743   7.4340 352.5843  1.86232362 41542
BEIDOU-3 M15 (C34)      
1 43648U 18078B   24327.83561897 -.00000075  00000+0  00000+0 0  9995
2 43648  54.5886 319.9346 0003436   3.2459 356.7638  1.86232242 41538
BEIDOU-3 G1 (C59)       
1 43683U 18085A   24329.57489042 -.00000264  00000+0  00000+0 0  9996
2 43683   2.5885 103.8879 0001460  55.4606 251.6878  1.00270241 22342
BEIDOU-3 M17 (C36)      
1 43706U 18093A   24327.98830706  .00000007  00000+0  00000+0 0  9995
2 43706  54.1970 201.6796 0006994 298.3883  61.6221  1.86228512 40904
BEIDOU-3 M18 (C37)      
1 43707U 18093B   24328.38929893  .00000011  00000+0  00000+0 0  9992
2 43707  54.1977 201.6578 0006606 337.3509  22.7011  1.86230062 40907
BEIDOU-3 IGSO-1 (C38)   
1 44204U 19023A   24328.66682547 -.00000230  00000+0  00000+0 0  9996
2 44204  57.8784  43.5611 0025103 212.0157 164.2153  1.00254247  1495
BEIDOU-2 G8 (C01)       
1 44231U 19027A   24329.62849073 -.00000235  00000+0  00000+0 0  9991
2 44231   1.8761  74.6994 0004907 200.0321 160.0687  1.00267950 20365
BEIDOU-3 IGSO-2 (C39)   
1 44337U 19035A   24322.83050358 -.00000064  00000+0  00000+0 0  9993
2 44337  55.1861 163.9216 0034767 201.0257 107.1426  1.00249229 19887
BEIDOU-3 M24 (C46)      
1 44542U 19061A   24328.99627787  .00000018  00000+0  00000+0 0  9997
2 44542  54.4247 201.9635 0009045  13.2530 346.8528  1.86229476 35172
BEIDOU-3 M23 (C45)      
1 44543U 19061B   24329.45462605  .00000025  00000+0  00000+0 0  9994
2 44543  54.4229 201.9166 0005730   9.2319 210.7692  1.86229735 35189
BEIDOU-3 IGSO-3 (C40)   
1 44709U 19073A   24329.29545424 -.00000203  00000+0  00000+0 0  9993
2 44709  55.7814 287.0266 0040256 190.6662 169.1950  1.00253358 18742
BEIDOU-3 M22 (C44)      
1 44793U 19078A   24329.37752819 -.00000077  00000+0  00000+0 0  9997
2 44793  54.4390 319.7914 0005418  11.0177 349.0023  1.86232129 34038
BEIDOU-3 M21 (C43)      
1 44794U 19078B   24328.43300539 -.00000076  00000+0  00000+0 0  9991
2 44794  54.4133 319.7969 0003622 354.6638   5.3401  1.86232635 34020
BEIDOU-3 M19 (C41)      
1 44864U 19090A   24329.21530779 -.00000024  00000+0  00000+0 0  9994
2 44864  56.0613  81.7106 0016707 278.7949  77.7816  1.86231650 33610
BEIDOU-3 M20 (C42)      
1 44865U 19090B   24329.63461841 -.00000026  00000+0  00000+0 0  9996
2 44865  56.0633  81.7303 0014075 292.1827  75.2152  1.86231617 33612
BEIDOU-3 G2 (C60)       
1 45344U 20017A   24329.59424539 -.00000129  00000+0  00000+0 0  9992
2 45344   2.5382  35.1834 0004462 218.6253 104.1899  1.00271430 17546
BEIDOU-3 G3 (C61)       
1 45807U 20040A   24329.59397312 -.00000342  00000+0  00000+0 0  9997
2 45807   1.0936  56.3964 0003377 300.1064  31.9392  1.00274708 16353
BEIDOU-3 G4 (C62)       
1 56564U 23066A   24329.51875727 -.00000100  00000+0  00000+0 0  9995
2 56564   1.7256 289.0301 0004484 258.8845 222.8705  1.00271844  5684
BEIDOU-3 M28 (C50)      
1 58654U 23207A   24329.05293994 -.00000024  00000+0  00000+0 0  9998
2 58654  55.2463  81.6210 0001846 239.9408 120.0274  1.86232069  6220
BEIDOU-3 M26 (C48)      
1 58655U 23207B   24329.38920902 -.00000026  00000+0  00000+0 0  9993
2 58655  55.2486  81.5952 0003287 232.1557 127.8007  1.86231563  6215
